STARLINK-31719          
1 59495U 24071M   26068.17238148  .00002788  00000+0  11079-3 0  9997
2 59495  42.9990 342.9151 0002138 231.8479 128.2180 15.27581616108126
NUSAT-48 (HENRIETTA LE*)
1 60498U 24149AG  26068.80506098  .00012988  00000+0  45212-3 0  9999
2 60498  97.3923 150.8264 0002754 263.3026  96.7901 15.29812597 86946
